{"fetched_at":"2026-03-29T16:36:15Z","count":15609,"tles":[{"name":"STARLINK-33727","line1":"1 63719U 25087Y   26087.83154137  .00017394  00000+0  59795-3 0  9994","line2":"2 63719  53.1600 130.4075 0001475  81.7588 278.3580 15.30204028 52136","category":"Starlink"}]}